NORAD_CAT_ID,OBJECT_NAME,OBJECT_TYPE,EPOCH,MEAN_MOTION,ECCENTRICITY,INCLINATION,RA_OF_ASC_NODE,ARG_OF_PERICENTER,MEAN_ANOMALY,BSTAR,MEAN_MOTION_DOT,MEAN_MOTION_DDOT,TLE_LINE0,TLE_LINE1,TLE_LINE2,SEMIMAJOR_AXIS,PERIOD,APOGEE,PERIGEE,DECAYED
52499.0,STARLINK-3894,PAYLOAD,2023-12-26 11:02:18,15.08847249,0.0001518,53.2165,59.4489,86.1953,273.9213,6.6957e-05,7.78e-06,0.0,0 STARLINK-3894,1 52499U 22049BA  23360.45993130  .00000778  00000-0  66957-4 0  9993,2 52499  53.2165  59.4489 0001518  86.1953 273.9213 15.08847249 90980,6917.858,95.437,540.773,538.673,0.0
52499.0,STARLINK-3894,PAYLOAD,2023-12-27 04:31:33,15.08834268,0.000157,53.2167,56.1784,88.7467,271.3704,-3.8242e-05,-8.96e-06,0.0,0 STARLINK-3894,1 52499U 22049BA  23361.18857799 -.00000896  00000-0 -38242-4 0  9993,2 52499  53.2167  56.1784 0001570  88.7467 271.3704 15.08834268 91255,6917.898,95.438,540.849,538.677,0.0
52499.0,STARLINK-3894,PAYLOAD,2023-12-27 09:17:42,15.08836913,0.0001442,53.2173,55.2858,87.1061,273.0096,3.5915e-05,2.84e-06,0.0,0 STARLINK-3894,1 52499U 22049BA  23361.38729991  .00000284  00000-0  35915-4 0  9990,2 52499  53.2173  55.2858 0001442  87.1061 273.0096 15.08836913 91123,6917.89,95.438,540.752,538.757,0.0
52499.0,STARLINK-3894,PAYLOAD,2023-12-28 09:08:29,15.08837813,0.0001476,53.2171,50.8258,79.792,280.3238,7.3231e-05,8.78e-06,0.0,0 STARLINK-3894,1 52499U 22049BA  23362.38090192  .00000878  00000-0  73231-4 0  9997,2 52499  53.2171  50.8258 0001476  79.7920 280.3238 15.08837813 91437,6917.887,95.438,540.773,538.731,0.0
52499.0,STARLINK-3894,PAYLOAD,2023-12-28 13:54:38,15.08857616,0.0001508,53.2171,49.9325,90.6277,269.4888,-0.00010351,-1.936e-05,0.0,0 STARLINK-3894,1 52499U 22049BA  23362.57961076 -.00001936  00000-0 -10351-3 0  9997,2 52499  53.2171  49.9325 0001508  90.6277 269.4888 15.08857616 91302,6917.827,95.436,540.735,538.648,0.0
52499.0,STARLINK-3894,PAYLOAD,2023-12-29 10:34:40,15.08828664,0.0001226,53.2184,46.0616,69.7061,290.4062,0.00026776,3.975e-05,0.0,0 STARLINK-3894,1 52499U 22049BA  23363.44074811  .00003975  00000-0  26776-3 0  9997,2 52499  53.2184  46.0616 0001226  69.7061 290.4062 15.08828664 91592,6917.915,95.438,540.628,538.932,0.0
52499.0,STARLINK-3894,PAYLOAD,2023-12-29 12:10:02,15.08852611,0.0001419,53.2181,45.7642,79.023,281.0922,-9.0721e-05,-1.732e-05,0.0,0 STARLINK-3894,1 52499U 22049BA  23363.50697797 -.00001732  00000-0 -90721-4 0  9991,2 52499  53.2181  45.7642 0001419  79.0230 281.0922 15.08852611 91444,6917.842,95.437,540.688,538.725,0.0
52499.0,STARLINK-3894,PAYLOAD,2023-12-30 10:25:26,15.08850472,0.0001626,53.219,41.5997,93.8985,266.2193,4.0956e-05,3.64e-06,0.0,0 STARLINK-3894,1 52499U 22049BA  23364.43433896  .00000364  00000-0  40956-4 0  9995,2 52499  53.2190  41.5997 0001626  93.8985 266.2193 15.08850472 91743,6917.848,95.437,540.838,538.589,0.0
52499.0,STARLINK-3894,PAYLOAD,2023-12-31 02:19:19,15.08834178,0.000154,53.2182,38.6341,89.0826,271.0343,9.5333e-05,1.229e-05,0.0,0 STARLINK-3894,1 52499U 22049BA  23365.09674990  .00001229  00000-0  95333-4 0  9990,2 52499  53.2182  38.6341 0001540  89.0826 271.0343 15.08834178 91847,6917.898,95.438,540.829,538.698,0.0
52499.0,STARLINK-3894,PAYLOAD,2023-12-31 08:40:51,15.08833804,0.0001526,53.2178,37.4453,84.9823,275.1344,5.0247e-05,5.12e-06,0.0,0 STARLINK-3894,1 52499U 22049BA  23365.36171161  .00000512  00000-0  50247-4 0  9991,2 52499  53.2178  37.4453 0001526  84.9823 275.1344 15.08833804 91726,6917.899,95.438,540.82,538.709,0.0
52499.0,STARLINK-3894,PAYLOAD,2024-01-01 11:42:23,15.08852637,0.0001507,53.2175,32.3882,94.2947,265.8217,0.00014036,1.947e-05,0.0,0 STARLINK-3894,1 52499U 22049BA  24001.48777603  .00001947  00000-0  14036-3 0  9993,2 52499  53.2175  32.3882 0001507  94.2947 265.8217 15.08852637 92050,6917.842,95.437,540.749,538.664,0.0
52499.0,STARLINK-3894,PAYLOAD,2024-01-02 05:11:38,15.0884057,0.0001699,53.2168,29.1155,104.0291,256.089,0.00014662,2.046e-05,0.0,0 STARLINK-3894,1 52499U 22049BA  24002.21642334  .00002046  00000-0  14662-3 0  9993,2 52499  53.2168  29.1155 0001699 104.0291 256.0890 15.08840570 92167,6917.879,95.438,540.919,538.568,0.0
52499.0,STARLINK-3894,PAYLOAD,2024-01-02 08:22:25,15.08842374,0.0001532,53.218,28.5238,90.1373,269.9795,0.00016581,2.352e-05,0.0,0 STARLINK-3894,1 52499U 22049BA  24002.34890308  .00002352  00000-0  16581-3 0  9995,2 52499  53.2180  28.5238 0001532  90.1373 269.9795 15.08842374 92024,6917.873,95.437,540.798,538.678,0.0
52499.0,STARLINK-3894,PAYLOAD,2024-01-03 01:51:40,15.08837668,0.0001957,53.2172,25.2513,115.1164,245.0031,2.509e-06,-2.48e-06,0.0,0 STARLINK-3894,1 52499U 22049BA  24003.07754822 -.00000248  00000-0  25090-5 0  9996,2 52499  53.2172  25.2513 0001957 115.1164 245.0031 15.08837668 92299,6917.888,95.438,541.106,538.399,0.0
52499.0,STARLINK-3894,PAYLOAD,2024-01-03 08:13:12,15.08840164,0.0001622,53.2175,24.0626,93.8498,266.2679,4.514e-06,-2.16e-06,0.0,0 STARLINK-3894,1 52499U 22049BA  24003.34250741 -.00000216  00000-0  45140-5 0  9990,2 52499  53.2175  24.0626 0001622  93.8498 266.2679 15.08840164 92170,6917.88,95.438,540.867,538.623,0.0
52499.0,STARLINK-3894,PAYLOAD,2024-01-04 04:53:13,15.0883966,0.0001679,53.2177,20.1977,106.3915,253.7262,5.3406e-05,5.62e-06,0.0,0 STARLINK-3894,1 52499U 22049BA  24004.20362697  .00000562  00000-0  53406-4 0  9996,2 52499  53.2177  20.1977 0001679 106.3915 253.7262 15.08839660 92464,6917.881,95.438,540.908,538.585,0.0
52499.0,STARLINK-3894,PAYLOAD,2024-01-04 06:28:36,15.08840242,0.0001673,53.2176,19.9003,105.6053,254.5124,5.5876e-05,6.01e-06,0.0,0 STARLINK-3894,1 52499U 22049BA  24004.26986643  .00000601  00000-0  55876-4 0  9992,2 52499  53.2176  19.9003 0001673 105.6053 254.5124 15.08840242 92316,6917.88,95.438,540.902,538.587,0.0
52499.0,STARLINK-3894,PAYLOAD,2024-01-05 04:44:01,15.08832083,0.0001617,53.2175,15.7366,103.653,256.4642,5.1572e-05,5.33e-06,0.0,0 STARLINK-3894,1 52499U 22049BA  24005.19723483  .00000533  00000-0  51572-4 0  9999,2 52499  53.2175  15.7366 0001617 103.6530 256.4642 15.08832083 92610,6917.905,95.438,540.888,538.651,0.0
52499.0,STARLINK-3894,PAYLOAD,2024-01-05 09:30:10,15.08834476,0.0001579,53.2179,14.846,101.2085,258.9085,6.4741e-05,7.42e-06,0.0,0 STARLINK-3894,1 52499U 22049BA  24005.39595423  .00000742  00000-0  64741-4 0  9996,2 52499  53.2179  14.8460 0001579 101.2085 258.9085 15.08834476 92486,6917.897,95.438,540.855,538.67,0.0
52499.0,STARLINK-3894,PAYLOAD,2024-01-06 04:34:47,15.08842573,0.0001509,53.2178,11.2745,96.2145,263.9019,9.2239e-05,1.18e-05,0.0,0 STARLINK-3894,1 52499U 22049BA  24006.19082989  .00001180  00000-0  92239-4 0  9993,2 52499  53.2178  11.2745 0001509  96.2145 263.9019 15.08842573 92766,6917.873,95.437,540.781,538.694,0.0
52499.0,STARLINK-3894,PAYLOAD,2024-01-06 09:20:56,15.0884532,0.0001503,53.2178,10.3825,94.0772,266.0392,0.00011182,1.492e-05,0.0,0 STARLINK-3894,1 52499U 22049BA  24006.38954777  .00001492  00000-0  11182-3 0  9990,2 52499  53.2178  10.3825 0001503  94.0772 266.0392 15.08845320 92638,6917.864,95.437,540.769,538.689,0.0
52499.0,STARLINK-3894,PAYLOAD,2024-01-07 04:25:35,15.08839174,0.0001501,53.2181,6.8143,93.3524,266.764,6.9299e-05,8.15e-06,0.0,0 STARLINK-3894,1 52499U 22049BA  24007.18443401  .00000815  00000-0  69299-4 0  9997,2 52499  53.2181   6.8143 0001501  93.3524 266.7640 15.08839174 92914,6917.883,95.438,540.786,538.71,0.0
52499.0,STARLINK-3894,PAYLOAD,2024-01-07 09:11:44,15.08844064,0.0001523,53.218,5.9222,91.553,268.5637,0.00010987,1.461e-05,0.0,0 STARLINK-3894,1 52499U 22049BA  24007.38315040  .00001461  00000-0  10987-3 0  9993,2 52499  53.2180   5.9222 0001523  91.5530 268.5637 15.08844064 92787,6917.868,95.437,540.787,538.679,0.0
52499.0,STARLINK-3894,PAYLOAD,2024-01-08 05:51:44,15.08842715,0.0001535,53.2185,2.0555,95.2241,264.8926,0.00012207,1.655e-05,0.0,0 STARLINK-3894,1 52499U 22049BA  24008.24426996  .00001655  00000-0  12207-3 0  9994,2 52499  53.2185   2.0555 0001535  95.2241 264.8926 15.08842715 93076,6917.872,95.437,540.799,538.675,0.0
52499.0,STARLINK-3894,PAYLOAD,2024-01-09 04:07:08,15.08874601,0.0001414,53.218,357.8926,79.7319,280.3832,-0.00038016,-6.339e-05,0.0,0 STARLINK-3894,1 52499U 22049BA  24009.17162219 -.00006339  00000-0 -38016-3 0  9994,2 52499  53.2180 357.8926 0001414  79.7319 280.3832 15.08874601 93217,6917.775,95.435,540.618,538.661,0.0
52499.0,STARLINK-3894,PAYLOAD,2024-01-09 08:53:18,15.08840258,0.0001588,53.218,356.9995,86.5388,273.5785,0.0001452,2.024e-05,0.0,0 STARLINK-3894,1 52499U 22049BA  24009.37034972  .00002024  00000-0  14520-3 0  9999,2 52499  53.2180 356.9995 0001588  86.5388 273.5785 15.08840258 93242,6917.88,95.438,540.843,538.646,0.0
52499.0,STARLINK-3894,PAYLOAD,2024-01-10 08:44:05,15.08846931,0.0001649,53.2175,352.5386,87.0754,273.0427,-2.4585e-05,-6.79e-06,0.0,0 STARLINK-3894,1 52499U 22049BA  24010.36395002 -.00000679  00000-0 -24585-4 0  9993,2 52499  53.2175 352.5386 0001649  87.0754 273.0427 15.08846931 93234,6917.859,95.437,540.865,538.583,0.0
52499.0,STARLINK-3894,PAYLOAD,2024-01-11 05:24:06,15.08839182,0.0001565,53.2181,348.6727,94.4561,265.661,6.7476e-05,7.86e-06,0.0,0 STARLINK-3894,1 52499U 22049BA  24011.22507355  .00000786  00000-0  67476-4 0  9998,2 52499  53.2181 348.6727 0001565  94.4561 265.6610 15.08839182 93524,6917.883,95.438,540.831,538.665,0.0
52499.0,STARLINK-3894,PAYLOAD,2024-01-12 03:39:31,15.08809395,0.0001853,53.2193,344.5091,92.338,267.7824,0.00043356,6.613e-05,0.0,0 STARLINK-3894,1 52499U 22049BA  24012.15244479  .00006613  00000-0  43356-3 0  9991,2 52499  53.2193 344.5091 0001853  92.3380 267.7824 15.08809395 93660,6917.974,95.439,541.121,538.557,0.0
52499.0,STARLINK-3894,PAYLOAD,2024-01-13 03:30:18,15.08832376,0.0001678,53.219,340.0503,101.3153,258.8028,0.00012921,1.769e-05,0.0,0 STARLINK-3894,1 52499U 22049BA  24013.14604173  .00001769  00000-0  12921-3 0  9993,2 52499  53.2190 340.0503 0001678 101.3153 258.8028 15.08832376 93819,6917.904,95.438,540.93,538.608,0.0
